TEVEL2-9                
1 63237U 25052AD  26068.70229538  .00018694  00000+0  67240-3 0  9992
2 63237  97.4057 324.3929 0007990 124.2475 235.9522 15.28633834 54816
STARLINK-34116          
1 63890U 25095A   26068.34792349  .00038061  00000+0  13849-2 0  9994
2 63890  42.9987 178.3202 0000891 237.4677 122.6089 15.27595514 47737
